{"type": "FeatureCollection", "features": [ {"type": "Feature", "properties": {"norad_id": 37966, "name": "COSMOS 2251 DEB", "group": "cosmos-2251-debris", "lat": 54.558177186318794, "lon": 31.56823011946012, "alt_km": 517.8428192935053, "timestamp": "2025-12-10T09:57:45.095779+00:00", "meta": {"OBJECT_NAME": "COSMOS 2251 DEB", "OBJECT_ID": "1993-036BPR", "EPOCH": "2025-12-09T09:36:29.677536", "MEAN_MOTION": 15.12084932, "ECCENTRICITY": 0.0008975, "INCLINATION": 73.977, "RA_OF_ASC_NODE": 237.4896, "ARG_OF_PERICENTER": 112.4769, "MEAN_ANOMALY": 247.7375, "EPHEMERIS_TYPE": 0, "CLASSIFICATION_TYPE": "U", "NORAD_CAT_ID": 37966, "ELEMENT_SET_NO": 999, "REV_AT_EPOCH": 85292, "BSTAR": 0.003976161, "MEAN_MOTION_DOT": 0.00069139, "MEAN_MOTION_DDOT": 0}, "tle": {"line1": "1 37966U 93036BPR 25343.40034349  .00069139  00000+0  39762-2 0  9992", "line2": "2 37966  73.9770 237.4896 0008975 112.4769 247.7375 15.12084932852920"}}, "geometry": {"type": "Point", "coordinates": [31.56823011946012, 54.558177186318794]}}, {"type": "Feature", "properties": {"norad_id": 37967, "name": "COSMOS 2251 DEB", "group": "cosmos-2251-debris", "lat": 31.210493445263346, "lon": 151.69142893129668, "alt_km": 793.325764537185, "timestamp": "2025-12-10T09:57:45.095790+00:00", "meta": {"OBJECT_NAME": "COSMOS 2251 DEB", "OBJECT_ID": "1993-036BPS", "EPOCH": "2025-12-09T17:08:35.964960", "MEAN_MOTION": 14.40464206, "ECCENTRICITY": 0.0150845, "INCLINATION": 74.0151, "RA_OF_ASC_NODE": 142.9877, "ARG_OF_PERICENTER": 282.4198, "MEAN_ANOMALY": 76.0112, "EPHEMERIS_TYPE": 0, "CLASSIFICATION_TYPE": "U", "NORAD_CAT_ID": 37967, "ELEMENT_SET_NO": 999, "REV_AT_EPOCH": 64692, "BSTAR": 0.0023152, "MEAN_MOTION_DOT": 8.402e-05, "MEAN_MOTION_DDOT": 0}, "tle": {"line1": "1 37967U 93036BPS 25343.71430515  .00008402  00000+0  23152-2 0  9994", "line2": "2 37967  74.0151 142.9877 0150845 282.4198  76.0112 14.40464206646922"}}, "geometry": {"type": "Point", "coordinates": [151.69142893129668, 31.210493445263346]}}, {"type": "Feature", "properties": {"norad_id": 37968, "name": "COSMOS 2251 DEB", "group": "cosmos-2251-debris", "lat": 38.38987000321154, "lon": -70.96121063904901, "alt_km": 506.7772016230592, "timestamp": "2025-12-10T09:57:45.095800+00:00", "meta": {"OBJECT_NAME": "COSMOS 2251 DEB", "OBJECT_ID": "1993-036BPT", "EPOCH": "2025-12-08T12:58:54.814944", "MEAN_MOTION": 15.00440305, "ECCENTRICITY": 0.0080589, "INCLINATION": 74.0015, "RA_OF_ASC_NODE": 279.7179, "ARG_OF_PERICENTER": 36.5177, "MEAN_ANOMALY": 324.1466, "EPHEMERIS_TYPE": 0, "CLASSIFICATION_TYPE": "U", "NORAD_CAT_ID": 37968, "ELEMENT_SET_NO": 999, "REV_AT_EPOCH": 60156, "BSTAR": 0.0013442, "MEAN_MOTION_DOT": 0.00018125, "MEAN_MOTION_DDOT": 0}, "tle": {"line1": "1 37968U 93036BPT 25342.54091221  .00018125  00000+0  13442-2 0  9996", "line2": "2 37968  74.0015 279.7179 0080589  36.5177 324.1466 15.00440305601569"}}, "geometry": {"type": "Point", "coordinates": [-70.96121063904901, 38.38987000321154]}}, {"type": "Feature", "properties": {"norad_id": 37971, "name": "COSMOS 2251 DEB", "group": "cosmos-2251-debris", "lat": 30.540270997994526, "lon": 55.85958365924156, "alt_km": 771.2620205553949, "timestamp": "2025-12-10T09:57:45.095810+00:00", "meta": {"OBJECT_NAME": "COSMOS 2251 DEB", "OBJECT_ID": "1993-036BPW", "EPOCH": "2025-12-09T10:36:31.990752", "MEAN_MOTION": 14.48556148, "ECCENTRICITY": 0.00677277, "INCLINATION": 73.9935, "RA_OF_ASC_NODE": 47.9361, "ARG_OF_PERICENTER": 187.3712, "MEAN_ANOMALY": 172.6459, "EPHEMERIS_TYPE": 0, "CLASSIFICATION_TYPE": "U", "NORAD_CAT_ID": 37971, "ELEMENT_SET_NO": 999, "REV_AT_EPOCH": 60630, "BSTAR": 0.0030807309, "MEAN_MOTION_DOT": 0.00011908, "MEAN_MOTION_DDOT": 0}, "tle": {"line1": "1 37971U 93036BPW 25343.44203693  .00011908  00000+0  30807-2 0  9994", "line2": "2 37971  73.9935  47.9361 0067727 187.3712 172.6459 14.48556148606308"}}, "geometry": {"type": "Point", "coordinates": [55.85958365924156, 30.540270997994526]}}, {"type": "Feature", "properties": {"norad_id": 37975, "name": "COSMOS 2251 DEB", "group": "cosmos-2251-debris", "lat": 49.61819328485787, "lon": -11.658076401041786, "alt_km": 641.7168889169907, "timestamp": "2025-12-10T09:57:45.095820+00:00", "meta": {"OBJECT_NAME": "COSMOS 2251 DEB", "OBJECT_ID": "1993-036BQA", "EPOCH": "2025-12-09T06:04:12.444384", "MEAN_MOTION": 14.75750431, "ECCENTRICITY": 0.0096458, "INCLINATION": 74.0034, "RA_OF_ASC_NODE": 330.9079, "ARG_OF_PERICENTER": 321.0366, "MEAN_ANOMALY": 38.3883, "EPHEMERIS_TYPE": 0, "CLASSIFICATION_TYPE": "U", "NORAD_CAT_ID": 37975, "ELEMENT_SET_NO": 999, "REV_AT_EPOCH": 69694, "BSTAR": 0.0053103, "MEAN_MOTION_DOT": 0.00039407, "MEAN_MOTION_DDOT": 0}, "tle": {"line1": "1 37975U 93036BQA 25343.25292181  .00039407  00000+0  53103-2 0  9995", "line2": "2 37975  74.0034 330.9079 0096458 321.0366  38.3883 14.75750431696949"}}, "geometry": {"type": "Point", "coordinates": [-11.658076401041786, 49.61819328485787]}}, {"type": "Feature", "properties": {"norad_id": 37978, "name": "COSMOS 2251 DEB", "group": "cosmos-2251-debris", "lat": 4.305421544516708, "lon": 95.58768977485263, "alt_km": 318.22406253036297, "timestamp": "2025-12-10T09:57:45.095831+00:00", "meta": {"OBJECT_NAME": "COSMOS 2251 DEB", "OBJECT_ID": "1993-036BQD", "EPOCH": "2025-11-19T05:08:53.100672", "MEAN_MOTION": 15.61137081, "ECCENTRICITY": 0.00148985, "INCLINATION": 74.0238, "RA_OF_ASC_NODE": 142.2198, "ARG_OF_PERICENTER": 140.9849, "MEAN_ANOMALY": 219.2448, "EPHEMERIS_TYPE": 0, "CLASSIFICATION_TYPE": "U", "NORAD_CAT_ID": 37978, "ELEMENT_SET_NO": 999, "REV_AT_EPOCH": 8032, "BSTAR": 0.0043958825, "MEAN_MOTION_DOT": 0.0039117, "MEAN_MOTION_DDOT": 0}, "tle": {"line1": "1 37978U 93036BQD 25323.21450348  .00391170  00000+0  43959-2 0  9999", "line2": "2 37978  74.0238 142.2198 0014898 140.9849 219.2448 15.61137081 80328"}}, "geometry": {"type": "Point", "coordinates": [95.58768977485263, 4.305421544516708]}}, {"type": "Feature", "properties": {"norad_id": 37985, "name": "COSMOS 2251 DEB", "group": "cosmos-2251-debris", "lat": 72.5122302808898, "lon": 24.612535588570186, "alt_km": 759.5531764744774, "timestamp": "2025-12-10T09:57:45.095841+00:00", "meta": {"OBJECT_NAME": "COSMOS 2251 DEB", "OBJECT_ID": "1993-036BQL", "EPOCH": "2025-12-07T12:56:14.167968", "MEAN_MOTION": 14.35480265, "ECCENTRICITY": 0.00206161, "INCLINATION": 74.0254, "RA_OF_ASC_NODE": 275.2818, "ARG_OF_PERICENTER": 39.5807, "MEAN_ANOMALY": 320.6846, "EPHEMERIS_TYPE": 0, "CLASSIFICATION_TYPE": "U", "NORAD_CAT_ID": 37985, "ELEMENT_SET_NO": 999, "REV_AT_EPOCH": 64842, "BSTAR": 0.0001017568, "MEAN_MOTION_DOT": 2.67e-06, "MEAN_MOTION_DDOT": 0}, "tle": {"line1": "1 37985U 93036BQL 25341.53905287  .00000267  00000+0  10176-3 0  9999", "line2": "2 37985  74.0254 275.2818 0020616  39.5807 320.6846 14.35480265648427"}}, "geometry": {"type": "Point", "coordinates": [24.612535588570186, 72.5122302808898]}}, {"type": "Feature", "properties": {"norad_id": 37988, "name": "COSMOS 2251 DEB", "group": "cosmos-2251-debris", "lat": -0.2046507636274398, "lon": -151.42562748232064, "alt_km": 684.8923484562038, "timestamp": "2025-12-10T09:57:45.095851+00:00", "meta": {"OBJECT_NAME": "COSMOS 2251 DEB", "OBJECT_ID": "1993-036BQP", "EPOCH": "2025-12-10T02:36:46.077696", "MEAN_MOTION": 14.68822509, "ECCENTRICITY": 0.0063168, "INCLINATION": 74.064, "RA_OF_ASC_NODE": 29.1073, "ARG_OF_PERICENTER": 67.4203, "MEAN_ANOMALY": 293.3634, "EPHEMERIS_TYPE": 0, "CLASSIFICATION_TYPE": "U", "NORAD_CAT_ID": 37988, "ELEMENT_SET_NO": 999, "REV_AT_EPOCH": 23357, "BSTAR": 0.0011049, "MEAN_MOTION_DOT": 6.625e-05, "MEAN_MOTION_DDOT": 0}, "tle": {"line1": "1 37988U 93036BQP 25344.10886664  .00006625  00000+0  11049-2 0  9998", "line2": "2 37988  74.0640  29.1073 0063168  67.4203 293.3634 14.68822509233571"}}, "geometry": {"type": "Point", "coordinates": [-151.42562748232064, -0.2046507636274398]}}, {"type": "Feature", "properties": {"norad_id": 37993, "name": "COSMOS 2251 DEB", "group": "cosmos-2251-debris", "lat": 30.58813434135789, "lon": -178.8954858200416, "alt_km": 702.0766564495025, "timestamp": "2025-12-10T09:57:45.095861+00:00", "meta": {"OBJECT_NAME": "COSMOS 2251 DEB", "OBJECT_ID": "1993-036BQU", "EPOCH": "2025-12-09T05:51:24.736320", "MEAN_MOTION": 14.59845478, "ECCENTRICITY": 0.0022054, "INCLINATION": 74.0217, "RA_OF_ASC_NODE": 173.5884, "ARG_OF_PERICENTER": 262.4751, "MEAN_ANOMALY": 97.3909, "EPHEMERIS_TYPE": 0, "CLASSIFICATION_TYPE": "U", "NORAD_CAT_ID": 37993, "ELEMENT_SET_NO": 999, "REV_AT_EPOCH": 65266, "BSTAR": 0.0017274, "MEAN_MOTION_DOT": 8.27e-05, "MEAN_MOTION_DDOT": 0}, "tle": {"line1": "1 37993U 93036BQU 25343.24403630  .00008270  00000+0  17274-2 0  9990", "line2": "2 37993  74.0217 173.5884 0022054 262.4751  97.3909 14.59845478652667"}}, "geometry": {"type": "Point", "coordinates": [-178.8954858200416, 30.58813434135789]}}, {"type": "Feature", "properties": {"norad_id": 37994, "name": "COSMOS 2251 DEB", "group": "cosmos-2251-debris", "lat": -65.7176907286428, "lon": -119.39758015213127, "alt_km": 761.3798786269699, "timestamp": "2025-12-10T09:57:45.095871+00:00", "meta": {"OBJECT_NAME": "COSMOS 2251 DEB", "OBJECT_ID": "1993-036BQV", "EPOCH": "2025-12-09T04:16:21.574272", "MEAN_MOTION": 14.39609674, "ECCENTRICITY": 0.00227751, "INCLINATION": 74.037, "RA_OF_ASC_NODE": 282.2654, "ARG_OF_PERICENTER": 2.3613, "MEAN_ANOMALY": 357.7645, "EPHEMERIS_TYPE": 0, "CLASSIFICATION_TYPE": "U", "NORAD_CAT_ID": 37994, "ELEMENT_SET_NO": 999, "REV_AT_EPOCH": 77013, "BSTAR": 0.00054509171, "MEAN_MOTION_DOT": 1.682e-05, "MEAN_MOTION_DDOT": 0}, "tle": {"line1": "1 37994U 93036BQV 25343.17802748  .00001682  00000+0  54509-3 0  9999", "line2": "2 37994  74.0370 282.2654 0022775   2.3613 357.7645 14.39609674770136"}}, "geometry": {"type": "Point", "coordinates": [-119.39758015213127, -65.7176907286428]}}]}